{"type": "FeatureCollection", "features": [ {"type": "Feature", "properties": {"norad_id": 38779, "name": "GSAT-10 (GAGAN/PRN 128)", "group": "gnss", "lat": 0.04867844095872212, "lon": 35.54288801298641, "alt_km": 35785.6949511974, "timestamp": "2025-12-26T14:28:47.944567+00:00", "meta": {"OBJECT_NAME": "GSAT-10 (GAGAN/PRN 128)", "OBJECT_ID": "2012-051B", "EPOCH": "2025-12-26T03:37:38.694720", "MEAN_MOTION": 1.00270744, "ECCENTRICITY": 0.0002086, "INCLINATION": 0.0597, "RA_OF_ASC_NODE": 261.7591, "ARG_OF_PERICENTER": 219.4452, "MEAN_ANOMALY": 111.1371, "EPHEMERIS_TYPE": 0, "CLASSIFICATION_TYPE": "U", "NORAD_CAT_ID": 38779, "ELEMENT_SET_NO": 999, "REV_AT_EPOCH": 4836, "BSTAR": 0, "MEAN_MOTION_DOT": -1.43e-06, "MEAN_MOTION_DDOT": 0}, "tle": {"line1": "1 38779U 12051B   25360.15114230 -.00000143  00000+0  00000+0 0  9993", "line2": "2 38779   0.0597 261.7591 0002086 219.4452 111.1371  1.00270744 48362"}}, "geometry": {"type": "Point", "coordinates": [35.54288801298641, 0.04867844095872212]}}, {"type": "Feature", "properties": {"norad_id": 38833, "name": "GPS BIIF-3  (PRN 24)", "group": "gnss", "lat": -25.86374484474332, "lon": -8.35528750462111, "alt_km": 20582.070754362267, "timestamp": "2025-12-26T14:28:47.944579+00:00", "meta": {"OBJECT_NAME": "GPS BIIF-3  (PRN 24)", "OBJECT_ID": "2012-053A", "EPOCH": "2025-12-24T07:38:21.199488", "MEAN_MOTION": 2.00565058, "ECCENTRICITY": 0.01760755, "INCLINATION": 53.5598, "RA_OF_ASC_NODE": 150.7645, "ARG_OF_PERICENTER": 64.1634, "MEAN_ANOMALY": 297.6191, "EPHEMERIS_TYPE": 0, "CLASSIFICATION_TYPE": "U", "NORAD_CAT_ID": 38833, "ELEMENT_SET_NO": 999, "REV_AT_EPOCH": 9593, "BSTAR": 0, "MEAN_MOTION_DOT": 8.3e-07, "MEAN_MOTION_DDOT": 0}, "tle": {"line1": "1 38833U 12053A   25358.31830092  .00000083  00000+0  00000+0 0  9994", "line2": "2 38833  53.5598 150.7645 0176075  64.1634 297.6191  2.00565058 95932"}}, "geometry": {"type": "Point", "coordinates": [-8.35528750462111, -25.86374484474332]}}, {"type": "Feature", "properties": {"norad_id": 38857, "name": "GSAT0103 (GALILEO-FM3)", "group": "gnss", "lat": 53.021529070574786, "lon": -138.57807005217478, "alt_km": 23224.64899417971, "timestamp": "2025-12-26T14:28:47.944591+00:00", "meta": {"OBJECT_NAME": "GSAT0103 (GALILEO-FM3)", "OBJECT_ID": "2012-055A", "EPOCH": "2025-12-22T21:54:43.252704", "MEAN_MOTION": 1.70473351, "ECCENTRICITY": 0.0002995, "INCLINATION": 55.698, "RA_OF_ASC_NODE": 106.3873, "ARG_OF_PERICENTER": 269.858, "MEAN_ANOMALY": 90.0891, "EPHEMERIS_TYPE": 0, "CLASSIFICATION_TYPE": "U", "NORAD_CAT_ID": 38857, "ELEMENT_SET_NO": 999, "REV_AT_EPOCH": 8200, "BSTAR": 0, "MEAN_MOTION_DOT": 1e-07, "MEAN_MOTION_DDOT": 0}, "tle": {"line1": "1 38857U 12055A   25356.91300061  .00000010  00000+0  00000+0 0  9994", "line2": "2 38857  55.6980 106.3873 0002995 269.8580  90.0891  1.70473351 82005"}}, "geometry": {"type": "Point", "coordinates": [-138.57807005217478, 53.021529070574786]}}, {"type": "Feature", "properties": {"norad_id": 38953, "name": "BEIDOU-2 G6 (C02)", "group": "gnss", "lat": -2.4912914384997116, "lon": 36.598339089887915, "alt_km": 35756.15868359858, "timestamp": "2025-12-26T14:28:47.944603+00:00", "meta": {"OBJECT_NAME": "BEIDOU-2 G6 (C02)", "OBJECT_ID": "2012-059A", "EPOCH": "2025-12-25T22:54:51.748704", "MEAN_MOTION": 1.00274748, "ECCENTRICITY": 0.00078835, "INCLINATION": 3.9809, "RA_OF_ASC_NODE": 75.381, "ARG_OF_PERICENTER": 293.9359, "MEAN_ANOMALY": 153.0475, "EPHEMERIS_TYPE": 0, "CLASSIFICATION_TYPE": "U", "NORAD_CAT_ID": 38953, "ELEMENT_SET_NO": 999, "REV_AT_EPOCH": 4817, "BSTAR": 0, "MEAN_MOTION_DOT": -1.55e-06, "MEAN_MOTION_DDOT": 0}, "tle": {"line1": "1 38953U 12059A   25359.95476561 -.00000155  00000+0  00000+0 0  9992", "line2": "2 38953   3.9809  75.3810 0007883 293.9359 153.0475  1.00274748 48177"}}, "geometry": {"type": "Point", "coordinates": [36.598339089887915, -2.4912914384997116]}}, {"type": "Feature", "properties": {"norad_id": 38977, "name": "LUCH 5B (SDCM/PRN 125)", "group": "gnss", "lat": -9.145283186883702, "lon": -64.07796324696528, "alt_km": 35768.74603507362, "timestamp": "2025-12-26T14:28:47.944615+00:00", "meta": {"OBJECT_NAME": "LUCH 5B (SDCM/PRN 125)", "OBJECT_ID": "2012-061A", "EPOCH": "2025-12-24T23:17:34.998144", "MEAN_MOTION": 1.00271775, "ECCENTRICITY": 0.000662, "INCLINATION": 10.1058, "RA_OF_ASC_NODE": 51.5875, "ARG_OF_PERICENTER": 196.0598, "MEAN_ANOMALY": 179.1583, "EPHEMERIS_TYPE": 0, "CLASSIFICATION_TYPE": "U", "NORAD_CAT_ID": 38977, "ELEMENT_SET_NO": 999, "REV_AT_EPOCH": 4786, "BSTAR": 0, "MEAN_MOTION_DOT": -1.21e-06, "MEAN_MOTION_DDOT": 0}, "tle": {"line1": "1 38977U 12061A   25358.97054396 -.00000121  00000+0  00000+0 0  9993", "line2": "2 38977  10.1058  51.5875 0006620 196.0598 179.1583  1.00271775 47863"}}, "geometry": {"type": "Point", "coordinates": [-64.07796324696528, -9.145283186883702]}}, {"type": "Feature", "properties": {"norad_id": 39155, "name": "COSMOS 2485 (747)", "group": "gnss", "lat": -57.41739891641126, "lon": 33.48672138198472, "alt_km": 19105.440633763086, "timestamp": "2025-12-26T14:28:47.944627+00:00", "meta": {"OBJECT_NAME": "COSMOS 2485 (747)", "OBJECT_ID": "2013-019A", "EPOCH": "2025-12-25T06:49:20.356032", "MEAN_MOTION": 2.13103209, "ECCENTRICITY": 0.00250108, "INCLINATION": 65.3197, "RA_OF_ASC_NODE": 79.4456, "ARG_OF_PERICENTER": 230.5627, "MEAN_ANOMALY": 129.2639, "EPHEMERIS_TYPE": 0, "CLASSIFICATION_TYPE": "U", "NORAD_CAT_ID": 39155, "ELEMENT_SET_NO": 999, "REV_AT_EPOCH": 9857, "BSTAR": 0, "MEAN_MOTION_DOT": 0, "MEAN_MOTION_DDOT": 0}, "tle": {"line1": "1 39155U 13019A   25359.28426338  .00000000  00000+0  00000+0 0  9995", "line2": "2 39155  65.3197  79.4456 0025010 230.5627 129.2639  2.13103209 98576"}}, "geometry": {"type": "Point", "coordinates": [33.48672138198472, -57.41739891641126]}}, {"type": "Feature", "properties": {"norad_id": 39166, "name": "GPS BIIF-4  (PRN 27)", "group": "gnss", "lat": -40.23839301710492, "lon": -120.8757902654011, "alt_km": 20252.840115517767, "timestamp": "2025-12-26T14:28:47.944658+00:00", "meta": {"OBJECT_NAME": "GPS BIIF-4  (PRN 27)", "OBJECT_ID": "2013-023A", "EPOCH": "2025-12-24T04:22:45.402816", "MEAN_MOTION": 2.00564584, "ECCENTRICITY": 0.01386043, "INCLINATION": 54.6422, "RA_OF_ASC_NODE": 276.1031, "ARG_OF_PERICENTER": 48.7593, "MEAN_ANOMALY": 312.474, "EPHEMERIS_TYPE": 0, "CLASSIFICATION_TYPE": "U", "NORAD_CAT_ID": 39166, "ELEMENT_SET_NO": 999, "REV_AT_EPOCH": 9237, "BSTAR": 0, "MEAN_MOTION_DOT": -1.6e-07, "MEAN_MOTION_DDOT": 0}, "tle": {"line1": "1 39166U 13023A   25358.18246994 -.00000016  00000+0  00000+0 0  9996", "line2": "2 39166  54.6422 276.1031 0138604  48.7593 312.4740  2.00564584 92374"}}, "geometry": {"type": "Point", "coordinates": [-120.8757902654011, -40.23839301710492]}}, {"type": "Feature", "properties": {"norad_id": 39199, "name": "IRNSS-1A", "group": "gnss", "lat": -29.6534691169826, "lon": 13.036390655769567, "alt_km": 35786.439879778336, "timestamp": "2025-12-26T14:28:47.944671+00:00", "meta": {"OBJECT_NAME": "IRNSS-1A", "OBJECT_ID": "2013-034A", "EPOCH": "2025-12-24T18:29:47.559840", "MEAN_MOTION": 1.00273605, "ECCENTRICITY": 0.00238143, "INCLINATION": 35.3368, "RA_OF_ASC_NODE": 66.3779, "ARG_OF_PERICENTER": 212.7296, "MEAN_ANOMALY": 146.6998, "EPHEMERIS_TYPE": 0, "CLASSIFICATION_TYPE": "U", "NORAD_CAT_ID": 39199, "ELEMENT_SET_NO": 999, "REV_AT_EPOCH": 4561, "BSTAR": 0, "MEAN_MOTION_DOT": 7.9e-07, "MEAN_MOTION_DDOT": 0}, "tle": {"line1": "1 39199U 13034A   25358.77068935  .00000079  00000+0  00000+0 0  9994", "line2": "2 39199  35.3368  66.3779 0023814 212.7296 146.6998  1.00273605 45619"}}, "geometry": {"type": "Point", "coordinates": [13.036390655769567, -29.6534691169826]}}, {"type": "Feature", "properties": {"norad_id": 39533, "name": "GPS BIIF-5  (PRN 30)", "group": "gnss", "lat": -36.52225790946146, "lon": 123.24425066557725, "alt_km": 20172.769382623694, "timestamp": "2025-12-26T14:28:47.944683+00:00", "meta": {"OBJECT_NAME": "GPS BIIF-5  (PRN 30)", "OBJECT_ID": "2014-008A", "EPOCH": "2025-12-23T16:16:25.020768", "MEAN_MOTION": 2.00548852, "ECCENTRICITY": 0.00795532, "INCLINATION": 53.5993, "RA_OF_ASC_NODE": 156.4877, "ARG_OF_PERICENTER": 225.9161, "MEAN_ANOMALY": 133.4108, "EPHEMERIS_TYPE": 0, "CLASSIFICATION_TYPE": "U", "NORAD_CAT_ID": 39533, "ELEMENT_SET_NO": 999, "REV_AT_EPOCH": 8616, "BSTAR": 0, "MEAN_MOTION_DOT": 8.2e-07, "MEAN_MOTION_DDOT": 0}, "tle": {"line1": "1 39533U 14008A   25357.67806737  .00000082  00000+0  00000+0 0  9990", "line2": "2 39533  53.5993 156.4877 0079553 225.9161 133.4108  2.00548852 86167"}}, "geometry": {"type": "Point", "coordinates": [123.24425066557725, -36.52225790946146]}}, {"type": "Feature", "properties": {"norad_id": 39617, "name": "ASTRA 5B (EGNOS/PRN 123)", "group": "gnss", "lat": -0.041005596798230924, "lon": -23.92554443736859, "alt_km": 35774.743497198324, "timestamp": "2025-12-26T14:28:47.944695+00:00", "meta": {"OBJECT_NAME": "ASTRA 5B (EGNOS/PRN 123)", "OBJECT_ID": "2014-011B", "EPOCH": "2025-12-26T02:52:23.929824", "MEAN_MOTION": 1.00271511, "ECCENTRICITY": 0.00046935, "INCLINATION": 0.0456, "RA_OF_ASC_NODE": 16.7994, "ARG_OF_PERICENTER": 264.1751, "MEAN_ANOMALY": 240.4863, "EPHEMERIS_TYPE": 0, "CLASSIFICATION_TYPE": "U", "NORAD_CAT_ID": 39617, "ELEMENT_SET_NO": 999, "REV_AT_EPOCH": 4293, "BSTAR": 0, "MEAN_MOTION_DOT": 1.59e-06, "MEAN_MOTION_DDOT": 0}, "tle": {"line1": "1 39617U 14011B   25360.11972141  .00000159  00000+0  00000+0 0  9998", "line2": "2 39617   0.0456  16.7994 0004693 264.1751 240.4863  1.00271511 42930"}}, "geometry": {"type": "Point", "coordinates": [-23.92554443736859, -0.041005596798230924]}}]}